NORAD_CAT_ID,OBJECT_NAME,OBJECT_TYPE,EPOCH,MEAN_MOTION,ECCENTRICITY,INCLINATION,RA_OF_ASC_NODE,ARG_OF_PERICENTER,MEAN_ANOMALY,BSTAR,MEAN_MOTION_DOT,MEAN_MOTION_DDOT,TLE_LINE0,TLE_LINE1,TLE_LINE2,SEMIMAJOR_AXIS,PERIOD,APOGEE,PERIGEE,DECAYED
49763.0,STARLINK-3198,PAYLOAD,2024-06-06 05:30:09,15.088352,0.0001501,53.2171,138.7504,88.6331,271.4833,-2.2418e-05,-6.45e-06,0.0,0 STARLINK-3198,1 49763U 21115AR  24158.22927584 -.00000645  00000-0 -22418-4 0  9996,2 49763  53.2171 138.7504 0001501  88.6331 271.4833 15.08835200139951,6917.895,95.438,540.798,538.722,0.0
49763.0,STARLINK-3198,PAYLOAD,2024-06-07 08:31:42,15.08842111,0.0001388,53.2164,133.6953,88.7034,271.4117,7.2447e-05,8.65e-06,0.0,0 STARLINK-3198,1 49763U 21115AR  24159.35534974  .00000865  00000-0  72447-4 0  9997,2 49763  53.2164 133.6953 0001388  88.7034 271.4117 15.08842111140124,6917.874,95.437,540.699,538.779,0.0
49763.0,STARLINK-3198,PAYLOAD,2024-06-07 14:53:14,15.08847527,0.0001399,53.2164,132.5059,88.8361,271.2791,0.00012898,1.766e-05,0.0,0 STARLINK-3198,1 49763U 21115AR  24159.62030439  .00001766  00000-0  12898-3 0  9998,2 49763  53.2164 132.5059 0001399  88.8361 271.2791 15.08847527139057,6917.857,95.437,540.69,538.755,0.0
49763.0,STARLINK-3198,PAYLOAD,2024-06-08 05:11:43,15.08835054,0.0001417,53.2172,129.8291,92.9516,267.1638,7.8562e-05,9.62e-06,0.0,0 STARLINK-3198,1 49763U 21115AR  24160.21647542  .00000962  00000-0  78562-4 0  9992,2 49763  53.2172 129.8291 0001417  92.9516 267.1638 15.08835054140252,6917.896,95.438,540.741,538.78,0.0
49763.0,STARLINK-3198,PAYLOAD,2024-06-08 14:44:01,15.08846805,0.0001412,53.2177,128.0435,85.3829,274.7324,0.00013073,1.794e-05,0.0,0 STARLINK-3198,1 49763U 21115AR  24160.61390683  .00001794  00000-0  13073-3 0  9996,2 49763  53.2177 128.0435 0001412  85.3829 274.7324 15.08846805139201,6917.86,95.437,540.701,538.748,0.0
49763.0,STARLINK-3198,PAYLOAD,2024-06-09 05:02:31,15.08833185,0.0001496,53.2176,125.3681,86.0167,274.0996,-7.9309e-05,-1.55e-05,0.0,0 STARLINK-3198,1 49763U 21115AR  24161.21008521 -.00001550  00000-0 -79309-4 0  9997,2 49763  53.2176 125.3681 0001496  86.0167 274.0996 15.08833185140407,6917.901,95.438,540.801,538.731,0.0
49763.0,STARLINK-3198,PAYLOAD,2024-06-09 14:34:49,15.0884188,0.0001683,53.2187,123.5839,86.1923,273.9262,3.0193e-06,-2.4e-06,0.0,0 STARLINK-3198,1 49763U 21115AR  24161.60751866 -.00000240  00000-0  30193-5 0  9990,2 49763  53.2187 123.5839 0001683  86.1923 273.9262 15.08841880139350,6917.875,95.437,540.904,538.575,0.0
49763.0,STARLINK-3198,PAYLOAD,2024-06-10 14:25:36,15.088478,0.0001493,53.2179,119.1218,81.6101,278.506,0.0001432,1.992e-05,0.0,0 STARLINK-3198,1 49763U 21115AR  24162.60111409  .00001992  00000-0  14320-3 0  9990,2 49763  53.2179 119.1218 0001493  81.6101 278.5060 15.08847800139502,6917.857,95.437,540.754,538.689,0.0
49763.0,STARLINK-3198,PAYLOAD,2024-06-11 04:44:04,15.08841749,0.0001326,53.2162,116.4451,86.8166,273.2978,0.00014728,2.057e-05,0.0,0 STARLINK-3198,1 49763U 21115AR  24163.19727866  .00002057  00000-0  14728-3 0  9990,2 49763  53.2162 116.4451 0001326  86.8166 273.2978 15.08841749140706,6917.875,95.437,540.657,538.823,0.0
49763.0,STARLINK-3198,PAYLOAD,2024-06-12 02:59:29,15.08838824,0.0001405,53.217,112.2824,92.7801,267.3352,2.8708e-05,1.69e-06,0.0,0 STARLINK-3198,1 49763U 21115AR  24164.12464540  .00000169  00000-0  28708-4 0  9997,2 49763  53.2170 112.2824 0001405  92.7801 267.3352 15.08838824140848,6917.884,95.438,540.721,538.777,0.0
49763.0,STARLINK-3198,PAYLOAD,2024-06-12 20:28:44,15.08825566,0.0001419,53.2165,109.0114,89.9863,270.1292,0.00024031,3.537e-05,0.0,0 STARLINK-3198,1 49763U 21115AR  24164.85328843  .00003537  00000-0  24031-3 0  9998,2 49763  53.2165 109.0114 0001419  89.9863 270.1292 15.08825566139841,6917.925,95.438,540.771,538.808,0.0
49763.0,STARLINK-3198,PAYLOAD,2024-06-13 06:01:02,15.08843387,0.000144,53.217,107.2273,92.047,268.0687,5.9287e-05,6.56e-06,0.0,0 STARLINK-3198,1 49763U 21115AR  24165.25072103  .00000656  00000-0  59287-4 0  9999,2 49763  53.2170 107.2273 0001440  92.0470 268.0687 15.08843387141013,6917.87,95.437,540.731,538.739,0.0
49763.0,STARLINK-3198,PAYLOAD,2024-06-14 12:13:21,15.08845482,0.0001339,53.2173,101.5782,87.2316,272.8829,0.00013213,1.816e-05,0.0,0 STARLINK-3198,1 49763U 21115AR  24166.50927810  .00001816  00000-0  13213-3 0  9999,2 49763  53.2173 101.5782 0001339  87.2316 272.8829 15.08845482140096,6917.864,95.437,540.655,538.802,0.0
49763.0,STARLINK-3198,PAYLOAD,2024-06-14 20:10:18,15.08839247,0.0001786,53.217,100.0904,79.4795,280.6398,1.8515e-05,7e-08,0.0,0 STARLINK-3198,1 49763U 21115AR  24166.84048685  .00000007  00000-0  18515-4 0  9992,2 49763  53.2170 100.0904 0001786  79.4795 280.6398 15.08839247140149,6917.883,95.438,540.983,538.512,0.0
49763.0,STARLINK-3198,PAYLOAD,2024-06-15 12:04:08,15.08850455,0.0001427,53.2185,97.1203,97.7644,262.351,0.00010297,1.352e-05,0.0,0 STARLINK-3198,1 49763U 21115AR  24167.50287544  .00001352  00000-0  10297-3 0  9997,2 49763  53.2185  97.1203 0001427  97.7644 262.3510 15.08850455141352,6917.848,95.437,540.701,538.726,0.0
49763.0,STARLINK-3198,PAYLOAD,2024-06-15 20:01:05,15.08833559,0.0001448,53.2184,95.6338,92.6498,267.466,-1.13e-05,-4.68e-06,0.0,0 STARLINK-3198,1 49763U 21115AR  24167.83409030 -.00000468  00000-0 -11300-4 0  9995,2 49763  53.2184  95.6338 0001448  92.6498 267.4660 15.08833559140297,6917.9,95.438,540.767,538.763,0.0
49763.0,STARLINK-3198,PAYLOAD,2024-06-16 11:54:55,15.08849872,0.0001528,53.2191,92.6611,94.2217,265.895,0.00013742,1.9e-05,0.0,0 STARLINK-3198,1 49763U 21115AR  24168.49647698  .00001900  00000-0  13742-3 0  9993,2 49763  53.2191  92.6611 0001528  94.2217 265.8950 15.08849872140392,6917.85,95.437,540.772,538.658,0.0
49763.0,STARLINK-3198,PAYLOAD,2024-06-17 11:45:43,15.08840509,0.0001484,53.2173,88.1985,88.1791,271.9371,1.9853e-05,2.8e-07,0.0,0 STARLINK-3198,1 49763U 21115AR  24169.49008578  .00000028  00000-0  19853-4 0  9992,2 49763  53.2173  88.1985 0001484  88.1791 271.9371 15.08840509141659,6917.879,95.438,540.77,538.717,0.0
49763.0,STARLINK-3198,PAYLOAD,2024-06-17 22:53:25,15.08835693,0.0001542,53.2177,86.1177,86.9914,273.1254,0.00013714,1.895e-05,0.0,0 STARLINK-3198,1 49763U 21115AR  24169.95377077  .00001895  00000-0  13714-3 0  9998,2 49763  53.2177  86.1177 0001542  86.9914 273.1254 15.08835693140619,6917.894,95.438,540.825,538.692,0.0
49763.0,STARLINK-3198,PAYLOAD,2024-06-18 11:36:30,15.08855564,0.0001351,53.2162,83.7358,83.6579,276.4567,0.0004207,6.417e-05,0.0,0 STARLINK-3198,1 49763U 21115AR  24170.48368226  .00006417  00000-0  42070-3 0  9996,2 49763  53.2162  83.7358 0001351  83.6579 276.4567 15.08855564140696,6917.833,95.437,540.632,538.763,0.0
49763.0,STARLINK-3198,PAYLOAD,2024-06-19 00:19:35,15.08842216,0.0001503,53.2175,81.3552,88.4842,271.6322,0.00017457,2.492e-05,0.0,0 STARLINK-3198,1 49763U 21115AR  24171.01360778  .00002492  00000-0  17457-3 0  9990,2 49763  53.2175  81.3552 0001503  88.4842 271.6322 15.08842216141883,6917.874,95.437,540.778,538.699,0.0
49763.0,STARLINK-3198,PAYLOAD,2024-06-19 11:27:17,15.08851421,0.0001578,53.2173,79.2769,83.4913,276.6259,0.00029519,4.415e-05,0.0,0 STARLINK-3198,1 49763U 21115AR  24171.47728423  .00004415  00000-0  29519-3 0  9994,2 49763  53.2173  79.2769 0001578  83.4913 276.6259 15.08851421140840,6917.845,95.437,540.802,538.619,0.0
49763.0,STARLINK-3198,PAYLOAD,2024-06-19 22:34:59,15.08837905,0.0001728,53.2175,77.1929,117.4045,242.7123,1.1099e-05,-1.11e-06,0.0,0 STARLINK-3198,1 49763U 21115AR  24171.94096717 -.00000111  00000-0  11099-4 0  9995,2 49763  53.2175  77.1929 0001728 117.4045 242.7123 15.08837905140911,6917.887,95.438,540.947,538.556,0.0
49763.0,STARLINK-3198,PAYLOAD,2024-06-20 11:18:04,15.0883984,0.0001692,53.2176,74.8131,118.8145,241.3018,1.7876e-05,-4e-08,0.0,0 STARLINK-3198,1 49763U 21115AR  24172.47088911 -.00000004  00000-0  17876-4 0  9991,2 49763  53.2176  74.8131 0001692 118.8145 241.3018 15.08839840140993,6917.881,95.438,540.916,538.575,0.0
49763.0,STARLINK-3198,PAYLOAD,2024-06-20 22:25:47,15.08824567,0.000162,53.2176,72.7328,121.4906,238.6244,0.00058466,9.025e-05,0.0,0 STARLINK-3198,1 49763U 21115AR  24172.93457960  .00009025  00000-0  58466-3 0  9996,2 49763  53.2176  72.7328 0001620 121.4906 238.6244 15.08824567141063,6917.928,95.439,540.913,538.672,0.0
49763.0,STARLINK-3198,PAYLOAD,2024-06-21 00:01:09,15.08840471,0.0001704,53.2175,72.436,119.5061,240.6101,4.4703e-05,4.23e-06,0.0,0 STARLINK-3198,1 49763U 21115AR  24173.00080945  .00000423  00000-0  44703-4 0  9993,2 49763  53.2175  72.4360 0001704 119.5061 240.6101 15.08840471142189,6917.879,95.438,540.923,538.565,0.0
49763.0,STARLINK-3198,PAYLOAD,2024-06-21 03:11:56,15.08841655,0.0001658,53.2186,71.8434,93.8002,266.3179,9.1338e-05,1.166e-05,0.0,0 STARLINK-3198,1 49763U 21115AR  24173.13329067  .00001166  00000-0  91338-4 0  9999,2 49763  53.2186  71.8434 0001658  93.8002 266.3179 15.08841655141097,6917.875,95.437,540.887,538.593,0.0
49763.0,STARLINK-3198,PAYLOAD,2024-06-21 22:16:34,15.08837251,0.000152,53.2175,68.2747,95.9157,264.2009,0.00014329,1.993e-05,0.0,0 STARLINK-3198,1 49763U 21115AR  24173.92817407  .00001993  00000-0  14329-3 0  9998,2 49763  53.2175  68.2747 0001520  95.9157 264.2009 15.08837251141214,6917.889,95.438,540.805,538.702,0.0
49763.0,STARLINK-3198,PAYLOAD,2024-06-22 22:07:21,15.08836192,0.0001426,53.2175,63.8119,115.1606,244.9534,7.818e-05,9.56e-06,0.0,0 STARLINK-3198,1 49763U 21115AR  24174.92177607  .00000956  00000-0  78180-4 0  9994,2 49763  53.2175  63.8119 0001426 115.1606 244.9534 15.08836192141364,6917.892,95.438,540.744,538.771,0.0
49763.0,STARLINK-3198,PAYLOAD,2024-06-23 02:53:30,15.08836714,0.000122,53.2177,62.9203,89.2425,270.8707,4.2894e-05,3.95e-06,0.0,0 STARLINK-3198,1 49763U 21115AR  24175.12049756  .00000395  00000-0  42894-4 0  9990,2 49763  53.2177  62.9203 0001220  89.2425 270.8707 15.08836714142509,6917.89,95.438,540.599,538.911,0.0
